[{"OBJECT_NAME":"FLOCK 4G-5","OBJECT_ID":"2025-009BG","EPOCH":"2026-03-09T10:57:11.608704","MEAN_MOTION":15.28679529,"ECCENTRICITY":0.00020946,"INCLINATION":97.4058,"RA_OF_ASC_NODE":151.2478,"ARG_OF_PERICENTER":314.5072,"MEAN_ANOMALY":45.5996,"EPHEMERIS_TYPE":0,"CLASSIFICATION_TYPE":"U","NORAD_CAT_ID":62663,"ELEMENT_SET_NO":999,"REV_AT_EPOCH":6369,"BSTAR":0.00040688068,"MEAN_MOTION_DOT":0.00011278,"MEAN_MOTION_DDOT":0},{"OBJECT_NAME":"STARLINK-35699","OBJECT_ID":"2025-268A","EPOCH":"2026-03-09T03:48:31.739616","MEAN_MOTION":15.27557802,"ECCENTRICITY":0.00017558,"INCLINATION":43.0027,"RA_OF_ASC_NODE":350.493,"ARG_OF_PERICENTER":256.2018,"MEAN_ANOMALY":103.8638,"EPHEMERIS_TYPE":0,"CLASSIFICATION_TYPE":"U","NORAD_CAT_ID":66557,"ELEMENT_SET_NO":999,"REV_AT_EPOCH":1787,"BSTAR":0.0012539595,"MEAN_MOTION_DOT":0.00034382,"MEAN_MOTION_DDOT":0}]
