FLOCK 4G-5              
1 62663U 25009BG  26068.45638436  .00011278  00000+0  40688-3 0  9997
2 62663  97.4058 151.2478 0002094 314.5072  45.5996 15.28679529 63699
STARLINK-35699          
1 66557U 25268A   26068.15870069  .00034382  00000+0  12540-2 0  9993
2 66557  43.0027 350.4930 0001755 256.2018 103.8638 15.27557802 17877
